ONEWEB-0053             
1 45157U 20008AC  23320.11590172  .00000536  00000+0  15004-2 0  9993
2 45157  87.8924 223.7764 0001783  70.3187 289.8132 13.10370961185039
ONEWEB-0054             
1 45158U 20008AD  23319.99890783 -.00000591  00000+0 -17307-2 0  9990
2 45158  87.8930 223.7847 0001710  72.7086 287.4228 13.10375162185132
ONEWEB-0056             
1 45159U 20008AE  23319.29220443 -.00000077  00000+0 -25766-3 0  9992
2 45159  87.8919 223.9209 0001821  68.2516 291.8805 13.10372013184439
ONEWEB-0057             
1 45160U 20008AF  23320.13863618 -.00000250  00000+0 -75260-3 0  9993
2 45160  87.8925 223.7478 0001712  65.6913 294.4393 13.10367200185204
ONEWEB-0058             
1 45161U 20008AG  23320.12579393  .00002283  00000+0  65031-2 0  9997
2 45161  87.8994 223.7941 0004109  52.9824 307.1679 13.10374528185535
ONEWEB-0059             
1 45162U 20008AH  23320.12240705  .00000665  00000+0  18690-2 0  9991
2 45162  87.8922 223.7686 0001510  69.6443 290.4847 13.10369642185428
ONEWEB-0062             
1 45163U 20008AJ  23319.99727903 -.00000603  00000+0 -17624-2 0  9995
2 45163  87.8934 223.7795 0001750  74.5531 285.5789 13.10373090185288
ONEWEB-0065             
1 45164U 20008AK  23319.28733782  .00000230  00000+0  62325-3 0  9993
2 45164  87.8923 223.9181 0001798  69.8304 290.3017 13.10371105184131
